ONEWEB-0413             
1 50490U 21132X   25356.77241003  .00000018  00000+0  12409-4 0  9990
2 50490  87.9167  10.5034 0002018  85.2319 274.9043 13.18684771198340
ONEWEB-0414             
1 50491U 21132Y   25357.06106052  .00000054  00000+0  10301-3 0  9996
2 50491  87.9175  10.4108 0002015  94.4908 265.6455 13.18687514198414
ONEWEB-0417             
1 50492U 21132Z   25357.06931210  .00000068  00000+0  13898-3 0  9998
2 50492  87.9174  10.4432 0001741  99.0735 261.0594 13.18686799198393
ONEWEB-0418             
1 50493U 21132AA  25357.00319404  .00000064  00000+0  12969-3 0  9992
2 50493  87.9175  10.4399 0001731 108.7326 251.3994 13.18686217198447
ONEWEB-0419             
1 50494U 21132AB  25357.09735317 -.00000067  00000+0 -20308-3 0  9998
2 50494  87.9177  10.4213 0001504  98.2796 261.8507 13.18686417198377
ONEWEB-0420             
1 50495U 21132AC  25357.06271360  .00000065  00000+0  13271-3 0  9996
2 50495  87.9173  10.4404 0001820  86.5771 273.5569 13.18686063198364
ONEWEB-0421             
1 50496U 21132AD  25357.05612045  .00000081  00000+0  17348-3 0  9992
2 50496  87.9173  10.4345 0002106  93.5717 266.5656 13.18686360198409
ONEWEB-0424             
1 50497U 21132AE  25357.01652704  .00000046  00000+0  82784-4 0  9993
2 50497  87.9173  10.4376 0001392  93.1177 267.0114 13.18687328198428
ONEWEB-0426             
1 50498U 21132AF  25357.05280680 -.00000024  00000+0 -94023-4 0  9995
2 50498  87.9176  10.4217 0002299 105.2096 254.9291 13.18687879198374
ONEWEB-0427             
1 50499U 21132AG  25357.01488727 -.00000007  00000+0 -49966-4 0  9991
2 50499  87.9173  10.4168 0001731  99.5422 260.5906 13.18685234198396
ONEWEB-0429             
1 50500U 21132AH  25356.77405454  .00000002  00000+0 -28538-4 0  9998
2 50500  87.9175  10.4968 0001762  87.1865 272.9468 13.18686296198330
ONEWEB-0430             
1 50501U 21132AJ  25357.06600558  .00000107  00000+0  23880-3 0  9993
2 50501  87.9178  10.4348 0001559  86.6349 273.4962 13.18687145198419
ONEWEB-0432             
1 50502U 21132AK  25357.09800424 -.00000063  00000+0 -19340-3 0  9990
2 50502  87.9174  10.3997 0001324 121.6001 238.5260 13.18677561198379
ONEWEB-0440             
1 50503U 21132AL  25357.08581262 -.00000014  00000+0 -69321-4 0  9997
2 50503  87.9177  10.4205 0002162  86.3392 273.7987 13.18685982198369
ONEWEB-0450             
1 50504U 21132AM  25357.00347731  .00000049  00000+0  92621-4 0  9996
2 50504  87.9167  10.4583 0001750  82.2866 277.8465 13.18684474198384
ONEWEB-0410             
1 51622U 22012A   25357.19721495 -.00000968  00000+0 -25271-2 0  9996
2 51622  87.9104  40.8372 0002821 132.6519 227.4851 13.17662982190522
