[{"OBJECT_NAME":"ONEWEB-0413","OBJECT_ID":"2021-132X","EPOCH":"2025-12-22T18:32:16.226592","MEAN_MOTION":13.18684771,"ECCENTRICITY":0.0002018,"INCLINATION":87.9167,"RA_OF_ASC_NODE":10.5034,"ARG_OF_PERICENTER":85.2319,"MEAN_ANOMALY":274.9043,"EPHEMERIS_TYPE":0,"CLASSIFICATION_TYPE":"U","NORAD_CAT_ID":50490,"ELEMENT_SET_NO":999,"REV_AT_EPOCH":19834,"BSTAR":1.2409173e-5,"MEAN_MOTION_DOT":1.8e-7,"MEAN_MOTION_DDOT":0},{"OBJECT_NAME":"ONEWEB-0414","OBJECT_ID":"2021-132Y","EPOCH":"2025-12-23T01:27:55.628928","MEAN_MOTION":13.18687514,"ECCENTRICITY":0.00020152,"INCLINATION":87.9175,"RA_OF_ASC_NODE":10.4108,"ARG_OF_PERICENTER":94.4908,"MEAN_ANOMALY":265.6455,"EPHEMERIS_TYPE":0,"CLASSIFICATION_TYPE":"U","NORAD_CAT_ID":50491,"ELEMENT_SET_NO":999,"REV_AT_EPOCH":19841,"BSTAR":0.00010300751,"MEAN_MOTION_DOT":5.4e-7,"MEAN_MOTION_DDOT":0},{"OBJECT_NAME":"ONEWEB-0417","OBJECT_ID":"2021-132Z","EPOCH":"2025-12-23T01:39:48.565440","MEAN_MOTION":13.18686799,"ECCENTRICITY":0.00017411,"INCLINATION":87.9174,"RA_OF_ASC_NODE":10.4432,"ARG_OF_PERICENTER":99.0735,"MEAN_ANOMALY":261.0594,"EPHEMERIS_TYPE":0,"CLASSIFICATION_TYPE":"U","NORAD_CAT_ID":50492,"ELEMENT_SET_NO":999,"REV_AT_EPOCH":19839,"BSTAR":0.00013898067,"MEAN_MOTION_DOT":6.8e-7,"MEAN_MOTION_DDOT":0},{"OBJECT_NAME":"ONEWEB-0418","OBJECT_ID":"2021-132AA","EPOCH":"2025-12-23T00:04:35.965056","MEAN_MOTION":13.18686217,"ECCENTRICITY":0.00017313,"INCLINATION":87.9175,"RA_OF_ASC_NODE":10.4399,"ARG_OF_PERICENTER":108.7326,"MEAN_ANOMALY":251.3994,"EPHEMERIS_TYPE":0,"CLASSIFICATION_TYPE":"U","NORAD_CAT_ID":50493,"ELEMENT_SET_NO":999,"REV_AT_EPOCH":19844,"BSTAR":0.00012969285,"MEAN_MOTION_DOT":6.4e-7,"MEAN_MOTION_DDOT":0},{"OBJECT_NAME":"ONEWEB-0419","OBJECT_ID":"2021-132AB","EPOCH":"2025-12-23T02:20:11.313888","MEAN_MOTION":13.18686417,"ECCENTRICITY":0.00015048,"INCLINATION":87.9177,"RA_OF_ASC_NODE":10.4213,"ARG_OF_PERICENTER":98.2796,"MEAN_ANOMALY":261.8507,"EPHEMERIS_TYPE":0,"CLASSIFICATION_TYPE":"U","NORAD_CAT_ID":50494,"ELEMENT_SET_NO":999,"REV_AT_EPOCH":19837,"BSTAR":-0.00020307513,"MEAN_MOTION_DOT":-6.7e-7,"MEAN_MOTION_DDOT":0},{"OBJECT_NAME":"ONEWEB-0420","OBJECT_ID":"2021-132AC","EPOCH":"2025-12-23T01:30:18.455040","MEAN_MOTION":13.18686063,"ECCENTRICITY":0.000182,"INCLINATION":87.9173,"RA_OF_ASC_NODE":10.4404,"ARG_OF_PERICENTER":86.5771,"MEAN_ANOMALY":273.5569,"EPHEMERIS_TYPE":0,"CLASSIFICATION_TYPE":"U","NORAD_CAT_ID":50495,"ELEMENT_SET_NO":999,"REV_AT_EPOCH":19836,"BSTAR":0.00013271224,"MEAN_MOTION_DOT":6.5e-7,"MEAN_MOTION_DDOT":0},{"OBJECT_NAME":"ONEWEB-0421","OBJECT_ID":"2021-132AD","EPOCH":"2025-12-23T01:20:48.806880","MEAN_MOTION":13.1868636,"ECCENTRICITY":0.00021061,"INCLINATION":87.9173,"RA_OF_ASC_NODE":10.4345,"ARG_OF_PERICENTER":93.5717,"MEAN_ANOMALY":266.5656,"EPHEMERIS_TYPE":0,"CLASSIFICATION_TYPE":"U","NORAD_CAT_ID":50496,"ELEMENT_SET_NO":999,"REV_AT_EPOCH":19840,"BSTAR":0.00017348097,"MEAN_MOTION_DOT":8.1e-7,"MEAN_MOTION_DDOT":0},{"OBJECT_NAME":"ONEWEB-0424","OBJECT_ID":"2021-132AE","EPOCH":"2025-12-23T00:23:47.936256","MEAN_MOTION":13.18687328,"ECCENTRICITY":0.00013927,"INCLINATION":87.9173,"RA_OF_ASC_NODE":10.4376,"ARG_OF_PERICENTER":93.1177,"MEAN_ANOMALY":267.0114,"EPHEMERIS_TYPE":0,"CLASSIFICATION_TYPE":"U","NORAD_CAT_ID":50497,"ELEMENT_SET_NO":999,"REV_AT_EPOCH":19842,"BSTAR":8.2784022e-5,"MEAN_MOTION_DOT":4.6e-7,"MEAN_MOTION_DDOT":0},{"OBJECT_NAME":"ONEWEB-0426","OBJECT_ID":"2021-132AF","EPOCH":"2025-12-23T01:16:02.507520","MEAN_MOTION":13.18687879,"ECCENTRICITY":0.00022991,"INCLINATION":87.9176,"RA_OF_ASC_NODE":10.4217,"ARG_OF_PERICENTER":105.2096,"MEAN_ANOMALY":254.9291,"EPHEMERIS_TYPE":0,"CLASSIFICATION_TYPE":"U","NORAD_CAT_ID":50498,"ELEMENT_SET_NO":999,"REV_AT_EPOCH":19837,"BSTAR":-9.4023345e-5,"MEAN_MOTION_DOT":-2.4e-7,"MEAN_MOTION_DDOT":0},{"OBJECT_NAME":"ONEWEB-0427","OBJECT_ID":"2021-132AG","EPOCH":"2025-12-23T00:21:26.260128","MEAN_MOTION":13.18685234,"ECCENTRICITY":0.00017311,"INCLINATION":87.9173,"RA_OF_ASC_NODE":10.4168,"ARG_OF_PERICENTER":99.5422,"MEAN_ANOMALY":260.5906,"EPHEMERIS_TYPE":0,"CLASSIFICATION_TYPE":"U","NORAD_CAT_ID":50499,"ELEMENT_SET_NO":999,"REV_AT_EPOCH":19839,"BSTAR":-4.9965787e-5,"MEAN_MOTION_DOT":-7.0e-8,"MEAN_MOTION_DDOT":0},{"OBJECT_NAME":"ONEWEB-0429","OBJECT_ID":"2021-132AH","EPOCH":"2025-12-22T18:34:38.312256","MEAN_MOTION":13.18686296,"ECCENTRICITY":0.00017626,"INCLINATION":87.9175,"RA_OF_ASC_NODE":10.4968,"ARG_OF_PERICENTER":87.1865,"MEAN_ANOMALY":272.9468,"EPHEMERIS_TYPE":0,"CLASSIFICATION_TYPE":"U","NORAD_CAT_ID":50500,"ELEMENT_SET_NO":999,"REV_AT_EPOCH":19833,"BSTAR":-2.8538413e-5,"MEAN_MOTION_DOT":2.0e-8,"MEAN_MOTION_DDOT":0},{"OBJECT_NAME":"ONEWEB-0430","OBJECT_ID":"2021-132AJ","EPOCH":"2025-12-23T01:35:02.882112","MEAN_MOTION":13.18687145,"ECCENTRICITY":0.00015591,"INCLINATION":87.9178,"RA_OF_ASC_NODE":10.4348,"ARG_OF_PERICENTER":86.6349,"MEAN_ANOMALY":273.4962,"EPHEMERIS_TYPE":0,"CLASSIFICATION_TYPE":"U","NORAD_CAT_ID":50501,"ELEMENT_SET_NO":999,"REV_AT_EPOCH":19841,"BSTAR":0.00023880331,"MEAN_MOTION_DOT":1.07e-6,"MEAN_MOTION_DDOT":0},{"OBJECT_NAME":"ONEWEB-0432","OBJECT_ID":"2021-132AK","EPOCH":"2025-12-23T02:21:07.566336","MEAN_MOTION":13.18677561,"ECCENTRICITY":0.00013242,"INCLINATION":87.9174,"RA_OF_ASC_NODE":10.3997,"ARG_OF_PERICENTER":121.6001,"MEAN_ANOMALY":238.526,"EPHEMERIS_TYPE":0,"CLASSIFICATION_TYPE":"U","NORAD_CAT_ID":50502,"ELEMENT_SET_NO":999,"REV_AT_EPOCH":19837,"BSTAR":-0.00019339572,"MEAN_MOTION_DOT":-6.3e-7,"MEAN_MOTION_DDOT":0},{"OBJECT_NAME":"ONEWEB-0440","OBJECT_ID":"2021-132AL","EPOCH":"2025-12-23T02:03:34.210368","MEAN_MOTION":13.18685982,"ECCENTRICITY":0.00021622,"INCLINATION":87.9177,"RA_OF_ASC_NODE":10.4205,"ARG_OF_PERICENTER":86.3392,"MEAN_ANOMALY":273.7987,"EPHEMERIS_TYPE":0,"CLASSIFICATION_TYPE":"U","NORAD_CAT_ID":50503,"ELEMENT_SET_NO":999,"REV_AT_EPOCH":19836,"BSTAR":-6.9321324e-5,"MEAN_MOTION_DOT":-1.4e-7,"MEAN_MOTION_DDOT":0},{"OBJECT_NAME":"ONEWEB-0450","OBJECT_ID":"2021-132AM","EPOCH":"2025-12-23T00:05:00.439584","MEAN_MOTION":13.18684474,"ECCENTRICITY":0.00017508,"INCLINATION":87.9167,"RA_OF_ASC_NODE":10.4583,"ARG_OF_PERICENTER":82.2866,"MEAN_ANOMALY":277.8465,"EPHEMERIS_TYPE":0,"CLASSIFICATION_TYPE":"U","NORAD_CAT_ID":50504,"ELEMENT_SET_NO":999,"REV_AT_EPOCH":19838,"BSTAR":9.2620826e-5,"MEAN_MOTION_DOT":4.9e-7,"MEAN_MOTION_DDOT":0},{"OBJECT_NAME":"ONEWEB-0410","OBJECT_ID":"2022-012A","EPOCH":"2025-12-23T04:43:59.371680","MEAN_MOTION":13.17662982,"ECCENTRICITY":0.00028214,"INCLINATION":87.9104,"RA_OF_ASC_NODE":40.8372,"ARG_OF_PERICENTER":132.6519,"MEAN_ANOMALY":227.4851,"EPHEMERIS_TYPE":0,"CLASSIFICATION_TYPE":"U","NORAD_CAT_ID":51622,"ELEMENT_SET_NO":999,"REV_AT_EPOCH":19052,"BSTAR":-0.0025271474,"MEAN_MOTION_DOT":-9.68e-6,"MEAN_MOTION_DDOT":0}]
